1 43476U 18047A   23060.78710251  .00005051  00000+0  19888-3 0  9993
2 43476  88.9948   3.6846 0017464  88.8661 271.4588 15.25279037265625
1 43476U 18047A   23060.85270992  .00005050  00000+0  19883-3 0  9998
2 43476  88.9948   3.6758 0017454  88.7158 271.6089 15.25279857265635
1 43476U 18047A   23061.83681949  .00005216  00000+0  20537-3 0  9997
2 43476  88.9949   3.5432 0017444  85.5480 274.7761 15.25290823265789
1 43476U 18047A   23062.55849496  .00005911  00000+0  23281-3 0  9991
2 43476  88.9952   3.4458 0017434  83.3808 276.9424 15.25300468265898
1 43476U 18047A   23062.88652783  .00006196  00000+0  24406-3 0  9994
2 43476  88.9952   3.4016 0017423  82.3629 277.9597 15.25305085265944
1 43476U 18047A   23063.14895373  .00005981  00000+0  23552-3 0  9990
2 43476  88.9953   3.3663 0017422  81.4834 278.8388 15.25307555265985
1 43476U 18047A   23063.54259077  .00006731  00000+0  26514-3 0  9994
2 43476  88.9954   3.3132 0017425  80.2550 280.0665 15.25314074266047
1 43476U 18047A   23063.87062087  .00006137  00000+0  24163-3 0  9991
2 43476  88.9955   3.2691 0017401  79.1912 281.1293 15.25317464266090
1 43476U 18047A   23064.46107273  .00006403  00000+0  25208-3 0  9991
2 43476  88.9957   3.1895 0017373  77.3682 282.9507 15.25325271266181
1 43476U 18047A   23064.59228385  .00006592  00000+0  25955-3 0  9991
2 43476  88.9957   3.1718 0017365  76.9600 283.3586 15.25327137266209
1 43476U 18047A   23064.92031086  .00006966  00000+0  27431-3 0  9994
2 43476  88.9959   3.1276 0017341  75.9677 284.3497 15.25332422266257
1 43476U 18047A   23065.77317669  .00006947  00000+0  27348-3 0  9998
2 43476  88.9961   3.0129 0017279  73.3292 286.9852 15.25343545266386
1 43476U 18047A   23065.90438587  .00007822  00000+0  30801-3 0  9997
2 43476  88.9962   2.9952 0017268  72.9348 287.3790 15.25346959266405
1 43476U 18047A   23066.82284715  .00008495  00000+0  33447-3 0  9997
2 43476  88.9964   2.8717 0017220  70.1128 290.1974 15.25361821266545
1 43476U 18047A   23066.88845123  .00007863  00000+0  30951-3 0  9994
2 43476  88.9964   2.8628 0017212  69.9012 290.4086 15.25361746266559
1 43476U 18047A   23067.87250650  .00009913  00000+0  39023-3 0  9996
2 43476  88.9965   2.7306 0017124  66.8946 293.4105 15.25379924266705
1 43476U 18047A   23068.13491972  .00009958  00000+0  39197-3 0  9991
2 43476  88.9966   2.6952 0017122  65.9098 294.3939 15.25383840266749
1 43476U 18047A   23068.85655220  .00007666  00000+0  30148-3 0  9999
2 43476  88.9965   2.5982 0017047  63.5804 296.7191 15.25391531266859
1 43476U 18047A   23069.44697517  .00007602  00000+0  29889-3 0  9990
2 43476  88.9964   2.5189 0016981  61.6666 298.6292 15.25399925266946
1 43476U 18047A   23069.90619078  .00007023  00000+0  27600-3 0  9993
2 43476  88.9963   2.4571 0016925  60.2326 300.0603 15.25405854267017
1 43476U 18047A   23070.56220973  .00007078  00000+0  27812-3 0  9994
2 43476  88.9961   2.3689 0016845  58.2227 302.0659 15.25414971267116
1 43476U 18047A   23070.82461617  .00006998  00000+0  27492-3 0  9999
2 43476  88.9960   2.3336 0016812  57.3962 302.8906 15.25418818267155
1 43476U 18047A   23070.89021760  .00006842  00000+0  26877-3 0  9991
2 43476  88.9960   2.3248 0016798  57.2109 303.0755 15.25419471267164
1 43476U 18047A   23071.54623056  .00006914  00000+0  27156-3 0  9991
2 43476  88.9960   2.2365 0016728  55.0426 305.2390 15.25428655267268
1 43476U 18047A   23071.87423564  .00006621  00000+0  25997-3 0  9995
2 43476  88.9959   2.1922 0016690  53.9781 306.3011 15.25432618267315
1 43476U 18047A   23072.13663899  .00006122  00000+0  24029-3 0  9993
2 43476  88.9959   2.1568 0016649  53.1592 307.1180 15.25435270267354
1 43476U 18047A   23072.59584355  .00005886  00000+0  23093-3 0  9998
2 43476  88.9958   2.0949 0016594  51.6910 308.5827 15.25440800267427
1 43476U 18047A   23072.92384570  .00005699  00000+0  22354-3 0  9993
2 43476  88.9957   2.0507 0016548  50.6116 309.6594 15.25444783267474
1 43476U 18047A   23073.51424773  .00005962  00000+0  23389-3 0  9991
2 43476  88.9957   1.9712 0016459  48.6706 311.5955 15.25452393267562
1 43476U 18047A   23073.57984780  .00005750  00000+0  22552-3 0  9992
2 43476  88.9956   1.9624 0016451  48.4700 311.7956 15.25452935267573
1 43476U 18047A   23073.84224754  .00006008  00000+0  23565-3 0  9992
2 43476  88.9955   1.9272 0016408  47.5878 312.6755 15.25456579267619
1 43476U 18047A   23074.56384430  .00006268  00000+0  24585-3 0  9991
2 43476  88.9956   1.8296 0016305  45.2111 315.0460 15.25465631267727
1 43476U 18047A   23074.82624214  .00006126  00000+0  24024-3 0  9998
2 43476  88.9956   1.7942 0016261  44.3384 315.9163 15.25468432267762
1 43476U 18047A   23074.89184147  .00006190  00000+0  24277-3 0  9992
2 43476  88.9955   1.7854 0016253  44.1176 316.1366 15.25469260267770
1 43476U 18047A   23075.48223397  .00005855  00000+0  22953-3 0  9995
2 43476  88.9956   1.7058 0016149  42.2032 318.0456 15.25476117267861
1 43476U 18047A   23075.87582768  .00005740  00000+0  22497-3 0  9994
2 43476  88.9957   1.6528 0016090  40.8963 319.3489 15.25480423267927
1 43476U 18047A   23076.20382150  .00005310  00000+0  20801-3 0  9995
2 43476  88.9958   1.6086 0016031  39.8406 320.4016 15.25483418267973
1 43476U 18047A   23076.53181457  .00005112  00000+0  20022-3 0  9993
2 43476  88.9959   1.5645 0015974  38.7049 321.5341 15.25486554268024
1 43476U 18047A   23076.85980672  .00005149  00000+0  20167-3 0  9994
2 43476  88.9959   1.5203 0015919  37.5971 322.6387 15.25490482268076
1 43476U 18047A   23077.51578957  .00004639  00000+0  18156-3 0  9995
2 43476  88.9961   1.4318 0015817  35.3611 324.8682 15.25496102268177
1 43476U 18047A   23077.90937778  .00004530  00000+0  17723-3 0  9997
2 43476  88.9962   1.3788 0015742  34.0122 326.2132 15.25499960268236
1 43476U 18047A   23078.56535630  .00004506  00000+0  17628-3 0  9998
2 43476  88.9964   1.2906 0015622  31.7964 328.4224 15.25506289268334
1 43476U 18047A   23078.82774694  .00004479  00000+0  17519-3 0  9990
2 43476  88.9964   1.2553 0015577  30.8692 329.3469 15.25508790268373
1 43476U 18047A   23078.89334454  .00004473  00000+0  17498-3 0  9993
2 43476  88.9965   1.2464 0015560  30.6438 329.5716 15.25509368268383
1 43476U 18047A   23079.54931920  .00004404  00000+0  17222-3 0  9996
2 43476  88.9967   1.1582 0015433  28.4300 331.7787 15.25515146268482
1 43476U 18047A   23079.74611093  .00004714  00000+0  18443-3 0  9994
2 43476  88.9967   1.1317 0015399  27.7326 332.4740 15.25517772268517
1 43476U 18047A   23080.20529096  .00004953  00000+0  19380-3 0  9994
2 43476  88.9968   1.0699 0015319  26.1478 334.0540 15.25522201268589
1 43476U 18047A   23080.46767906  .00004776  00000+0  18684-3 0  9995
2 43476  88.9968   1.0346 0015272  25.2253 334.9738 15.25524360268628
1 43476U 18047A   23080.86126017  .00005059  00000+0  19796-3 0  9991
2 43476  88.9968   0.9817 0015185  23.8552 336.3397 15.25528654268681
1 43476U 18047A   23081.51722614  .00005248  00000+0  20537-3 0  9994
2 43476  88.9967   0.8935 0015068  21.5235 338.6644 15.25535791268784
1 43476U 18047A   23081.84520799  .00005314  00000+0  20796-3 0  9991
2 43476  88.9967   0.8494 0014964  20.4311 339.7533 15.25539392268837
1 43476U 18047A   23082.56676556  .00005527  00000+0  21627-3 0  9994
2 43476  88.9966   0.7524 0014829  17.8679 342.3087 15.25547363268949
1 43476U 18047A   23082.82914853  .00006471  00000+0  25336-3 0  9998
2 43476  88.9965   0.7171 0014780  16.9094 343.2643 15.25552806268983
1 43476U 18047A   23082.89474429  .00006385  00000+0  25000-3 0  9997
2 43476  88.9965   0.7083 0014766  16.6747 343.4984 15.25553407268990
1 43476U 18047A   23083.55069856  .00007735  00000+0  30299-3 0  9991
2 43476  88.9963   0.6200 0014637  14.3500 345.8161 15.25564685269092
1 43476U 18047A   23083.87867457  .00006273  00000+0  24550-3 0  9998
2 43476  88.9962   0.5759 0014573  13.1379 347.0245 15.25567064269146
1 43476U 18047A   23084.92819146  .00005819  00000+0  22759-3 0  9991
2 43476  88.9959   0.4344 0014342   9.2589 350.8921 15.25579751269301
1 43476U 18047A   23085.19056945  .00005604  00000+0  21915-3 0  9996
2 43476  88.9958   0.3991 0014274   8.3242 351.8241 15.25582562269341
1 43476U 18047A   23085.91210724  .00005369  00000+0  20986-3 0  9998
2 43476  88.9957   0.3019 0014119   5.6291 354.5113 15.25589477269455
1 43476U 18047A   23086.50245359  .00004986  00000+0  19481-3 0  9998
2 43476  88.9956   0.2224 0013984   3.3961 356.7380 15.25594549269545
1 43476U 18047A   23086.56804751  .00004985  00000+0  19478-3 0  9996
2 43476  88.9956   0.2135 0013968   3.1421 356.9913 15.25595215269553
1 43476U 18047A   23086.89601657  .00005105  00000+0  19945-3 0  9996
2 43476  88.9955   0.1693 0013891   1.8872 358.2426 15.25598815269609
1 43476U 18047A   23087.55195269  .00004995  00000+0  19513-3 0  9994
2 43476  88.9954   0.0808 0013769 359.3628   0.7601 15.25605076269702
1 43476U 18047A   23087.55195270  .00004945  00000+0  19316-3 0  9992
2 43476  88.9954   0.0808 0013765 359.3692   0.7536 15.25604988269707
1 43476U 18047A   23087.87991950  .00005132  00000+0  20048-3 0  9999
2 43476  88.9954   0.0366 0013698 358.0752   2.0441 15.25608958269750
1 43476U 18047A   23088.53585129  .00005255  00000+0  20529-3 0  9990
2 43476  88.9955 359.9482 0013553 355.5759   4.5367 15.25615899269852
1 43476U 18047A   23088.79822308  .00005166  00000+0  20176-3 0  9990
2 43476  88.9954 359.9129 0013504 354.5614   5.5485 15.25618718269893
1 43476U 18047A   23088.92940882  .00005265  00000+0  20567-3 0  9997
2 43476  88.9954 359.8952 0013474 354.0563   6.0523 15.25620161269917
1 43476U 18047A   23089.84770560  .00005817  00000+0  22728-3 0  9997
2 43476  88.9956 359.7712 0013266 350.3490   9.7502 15.25630760270059
